NORAD_CAT_ID,OBJECT_NAME,OBJECT_TYPE,EPOCH,MEAN_MOTION,ECCENTRICITY,INCLINATION,RA_OF_ASC_NODE,ARG_OF_PERICENTER,MEAN_ANOMALY,BSTAR,MEAN_MOTION_DOT,MEAN_MOTION_DDOT,TLE_LINE0,TLE_LINE1,TLE_LINE2,SEMIMAJOR_AXIS,PERIOD,APOGEE,PERIGEE,DECAYED
53555.0,STARLINK-4504,PAYLOAD,2022-08-24 14:00:01,15.89975857,0.0039457,53.2174,131.3967,56.1259,42.8671,-0.0039260999999999,-0.0128852,0.00047564,0 STARLINK-4504,1 53555U 22101AE  22236.58334491 -.01288520  47564-3 -39261-2 0  9991,2 53555  53.2174 131.3967 0039457  56.1259  42.8671 15.89975857   779,6680.486999999999,90.567,328.712,275.993,0.0
53555.0,STARLINK-4504,PAYLOAD,2022-08-25 04:00:00,15.88482338,0.0033303,53.2173,128.4436,57.601000000000006,140.7206,-0.0045037,-0.01340416,0.00050402,0 STARLINK-4504,1 53555U 22101AE  22237.16667824 -.01340416  50402-3 -45037-2 0  9991,2 53555  53.2173 128.4436 0033303  57.6010 140.7206 15.88482338   869,6684.674,90.653,328.801,284.277,0.0
53555.0,STARLINK-4504,PAYLOAD,2022-08-25 12:00:00,15.87626839,0.0029552,53.2175,126.7553,57.8409,247.2379,-0.0048467,-0.01366893,0.00051822,0 STARLINK-4504,1 53555U 22101AE  22237.50001157 -.01366893  51822-3 -48467-2 0  9994,2 53555  53.2175 126.7553 0029552  57.8409 247.2379 15.87626839   912,6687.075,90.701,328.702,289.1790000000001,0.0
53555.0,STARLINK-4504,PAYLOAD,2022-08-25 14:00:01,15.87375978,0.0028788,53.2174,126.3335,57.4163,4.202,-0.0046669,-0.01297984,0.00047051,0 STARLINK-4504,1 53555U 22101AE  22237.58334491 -.01297984  47051-3 -46669-2 0  9997,2 53555  53.2174 126.3335 0028788  57.4163   4.2020 15.87375978  1301,6687.78,90.716,328.898,290.392,0.0
53555.0,STARLINK-4504,PAYLOAD,2022-08-25 18:00:00,15.86962396,0.0026577,53.2175,125.4922,57.8202,236.65,-0.0049625,-0.01344412,0.00049974,0 STARLINK-4504,1 53555U 22101AE  22237.75001157 -.01344412  49974-3 -49625-2 0  9996,2 53555  53.2175 125.4922 0026577  57.8202 236.6500 15.86962396   955,6688.941999999999,90.739,328.584,293.03,0.0
53555.0,STARLINK-4504,PAYLOAD,2022-08-25 22:00:00,15.86523422,0.0025038,53.2176,124.6518,56.8564,110.2113,-0.0050288,-0.01328743,0.00048722,0 STARLINK-4504,1 53555U 22101AE  22237.91667824 -.01328743  48722-3 -50288-2 0  9999,2 53555  53.2176 124.6518 0025038  56.8564 110.2113 15.86523422  1309,6690.176,90.764,328.791,295.29,0.0
53555.0,STARLINK-4504,PAYLOAD,2022-08-26 12:00:00,15.85027115,0.0019422999999999,53.2174,121.7098,57.7678,201.3309,-0.0056614,-0.01212293,0.0,0 STARLINK-4504,1 53555U 22101AE  22238.50001157 -.01212293  00000-0 -56614-2 0  9991,2 53555  53.2174 121.7098 0019423  57.7678 201.3309 15.85027115  1075,6694.385,90.85,329.2530000000001,303.248,0.0
53555.0,STARLINK-4504,PAYLOAD,2022-08-26 14:00:01,15.84784637,0.0018516,53.2172,121.2896,56.9552,317.9641,-0.0055233,-0.01172026,0.0,0 STARLINK-4504,1 53555U 22101AE  22238.58335648 -.01172026  00000-0 -55233-2 0  9999,2 53555  53.2172 121.2896 0018516  56.9552 317.9641 15.84784637  1305,6695.068,90.864,329.33,304.5370000000001,0.0
53555.0,STARLINK-4504,PAYLOAD,2022-08-26 22:00:00,15.83909163,0.0015536,53.2172,119.6147,56.1523,61.0287,-0.0057033,-0.01155515,0.0,0 STARLINK-4504,1 53555U 22101AE  22238.91667824 -.01155515  00000-0 -57033-2 0  9994,2 53555  53.2172 119.6147 0015536  56.1523  61.0287 15.83909163  1309,6697.535,90.914,329.805,308.995,0.0
53555.0,STARLINK-4504,PAYLOAD,2022-08-27 14:00:01,15.82199022,0.0009023,53.2175,116.2652,53.2029,265.4956,-0.0064893999999999,-0.01217562,0.0,0 STARLINK-4504,1 53555U 22101AE  22239.58334491 -.01217562  00000-0 -64894-2 0  9993,2 53555  53.2175 116.2652 0009023  53.2029 265.4956 15.82199022  1306,6702.36,91.013,330.273,318.178,0.0
53555.0,STARLINK-4504,PAYLOAD,2022-08-27 20:00:01,15.81552442,0.0007024,53.2176,115.0136,46.0445,257.1474,-0.0067344,-0.01222458,0.0,0 STARLINK-4504,1 53555U 22101AE  22239.83334491 -.01222458  00000-0 -67344-2 0  9994,2 53555  53.2176 115.0136 0007024  46.0445 257.1474 15.81552442  1280,6704.187,91.05,330.761,321.343,0.0
53555.0,STARLINK-4504,PAYLOAD,2022-08-27 22:00:00,15.81308682,0.0006397999999999,53.2176,114.5967,41.5675,16.3348,-0.0065307,-0.01176779,0.0,0 STARLINK-4504,1 53555U 22101AE  22239.91667824 -.01176779  00000-0 -65307-2 0  9993,2 53555  53.2176 114.5967 0006398  41.5675  16.3348 15.81308682  1307,6704.876,91.064,331.031,322.451,0.0
53555.0,STARLINK-4504,PAYLOAD,2022-08-28 14:00:01,15.79588449,0.0002998,53.2172,111.26,12.3566,240.8079,-0.0072554,-0.01200949,0.0,0 STARLINK-4504,1 53555U 22101AE  22240.58334491 -.01200949  00000-0 -72554-2 0  9998,2 53555  53.2172 111.2600 0002998  12.3566 240.8079 15.79588449  1301,6709.743,91.163,333.619,329.596,0.0
53555.0,STARLINK-4504,PAYLOAD,2022-08-28 20:00:01,15.78934338,0.0002708,53.2174,110.0134,12.8684,222.4454,-0.0074358,-0.01194956,0.0,0 STARLINK-4504,1 53555U 22101AE  22240.83334491 -.01194956  00000-0 -74358-2 0  9990,2 53555  53.2174 110.0134 0002708  12.8684 222.4454 15.78934338  1446,6711.596,91.201,335.278,331.64300000000014,0.0
53555.0,STARLINK-4504,PAYLOAD,2022-08-28 22:00:00,15.78719553,0.0002763,53.2173,109.598,9.625,339.6072,-0.0075355,-0.0119872,0.0,0 STARLINK-4504,1 53555U 22101AE  22240.91667824 -.01198720  00000-0 -75355-2 0  9999,2 53555  53.2173 109.5980 0002763   9.6250 339.6072 15.78719553  1303,6712.205,91.213,335.9240000000001,332.215,0.0
53555.0,STARLINK-4504,PAYLOAD,2022-08-29 12:00:00,15.77200635,0.0003252,53.2175,106.6892,347.5431,77.3011,-0.0080757,-0.01199479,0.0,0 STARLINK-4504,1 53555U 22101AE  22241.50001157 -.01199479  00000-0 -80757-2 0  9990,2 53555  53.2175 106.6892 0003252 347.5431  77.3011 15.77200635  1555,6716.513000000001,91.301,340.5630000000001,336.194,0.0
53555.0,STARLINK-4504,PAYLOAD,2022-08-29 14:00:01,15.76983136,0.0003282,53.2175,106.2741,359.1496,179.092,-0.0081365,-0.01197082,0.0,0 STARLINK-4504,1 53555U 22101AE  22241.58334491 -.01197082  00000-0 -81365-2 0  9992,2 53555  53.2175 106.2741 0003282 359.1496 179.0920 15.76983136  1302,6717.130999999999,91.314,341.2,336.791,0.0
53555.0,STARLINK-4504,PAYLOAD,2022-08-29 22:00:00,15.76104314,0.0003516,53.2175,104.6186,335.1342,296.0496,-0.0083216,-0.01179513,0.0,0 STARLINK-4504,1 53555U 22101AE  22241.91667824 -.01179513  00000-0 -83216-2 0  9994,2 53555  53.2175 104.6186 0003516 335.1342 296.0496 15.76104314  1302,6719.628000000002,91.365,343.855,339.13,0.0
53555.0,STARLINK-4504,PAYLOAD,2022-08-30 06:00:00,15.75243623,7.099999999999999e-05,53.2172,102.9623,30.7938,332.2848,-0.0087348999999999,-0.01188861,0.0,0 STARLINK-4504,1 53555U 22101AE  22242.25001157 -.01188861  00000-0 -87349-2 0  9990,2 53555  53.2172 102.9623 0000710  30.7938 332.2848 15.75243623  1667,6722.075,91.414,344.417,343.463,0.0
53555.0,STARLINK-4504,PAYLOAD,2022-08-30 14:00:01,15.74381539,0.0001252,53.2167,101.3077,57.0236,36.8815,-0.0085532999999999,-0.01128378,0.0,0 STARLINK-4504,1 53555U 22101AE  22242.58334491 -.01128378  00000-0 -85533-2 0  9996,2 53555  53.2167 101.3077 0001252  57.0236  36.8815 15.74381539  1302,6724.529,91.464,347.236,345.552,0.0
53555.0,STARLINK-4504,PAYLOAD,2022-08-30 20:00:01,15.73595676,0.0001378,53.2174,100.0704,56.7678,14.6321,-0.0037613,-0.00506478,0.0,0 STARLINK-4504,1 53555U 22101AE  22242.83334491 -.00506478  00000-0 -37613-2 0  9990,2 53555  53.2174 100.0704 0001378  56.7678  14.6321 15.73595676  1762,6726.767,91.51,349.559,347.705,0.0
53555.0,STARLINK-4504,PAYLOAD,2022-08-30 22:00:00,15.7344485,0.0001379,53.2171,99.6587,73.3579,110.3897,-0.0025467,-0.00347312,0.0,0 STARLINK-4504,1 53555U 22101AE  22242.91667824 -.00347312  00000-0 -25467-2 0  9992,2 53555  53.2171  99.6587 0001379  73.3579 110.3897 15.73444850  1306,6727.196999999999,91.519,349.99,348.135,0.0
53555.0,STARLINK-4504,PAYLOAD,2022-08-31 12:00:00,15.73236129,0.0001213,53.2162,96.7709,73.4658,176.0688,0.00016369,0.00022449,0.0,0 STARLINK-4504,1 53555U 22101AE  22243.50001157  .00022449  00000-0  16369-3 0  9990,2 53555  53.2162  96.7709 0001213  73.4658 176.0688 15.73236129  1862,6727.792,91.531,350.473,348.841,0.0
53555.0,STARLINK-4504,PAYLOAD,2022-08-31 14:00:01,15.73301667,0.0001242999999999,53.2164,96.3581,71.9854,289.7775,-0.00093498,-0.00130389,0.0,0 STARLINK-4504,1 53555U 22101AE  22243.58334491 -.00130389  00000-0 -93498-3 0  9991,2 53555  53.2164  96.3581 0001243  71.9854 289.7775 15.73301667  1300,6727.605,91.527,350.307,348.634,0.0
53555.0,STARLINK-4504,PAYLOAD,2022-08-31 20:00:01,15.73245141,0.000134,53.2153,95.1241,64.0255,274.5098,-0.00047488,-0.00066867,0.0,0 STARLINK-4504,1 53555U 22101AE  22243.83334491 -.00066867  00000-0 -47488-3 0  9996,2 53555  53.2153  95.1241 0001340  64.0255 274.5098 15.73245141  1915,6727.766,91.531,350.533,348.73,0.0
53555.0,STARLINK-4504,PAYLOAD,2022-08-31 22:00:00,15.73237944,0.0001381,53.2153,94.7123,61.8018,28.9756,-0.0005233,-0.00073542,0.0,0 STARLINK-4504,1 53555U 22101AE  22243.91667824 -.00073542  00000-0 -52330-3 0  9994,2 53555  53.2153  94.7123 0001381  61.8018  28.9756 15.73237944  1303,6727.7869999999975,91.531,350.581,348.723,0.0
53555.0,STARLINK-4504,PAYLOAD,2022-09-01 12:00:00,15.73117756,0.0001024,53.215,91.8232,71.0758,85.3426,0.00040432,0.00056304,0.0,0 STARLINK-4504,1 53555U 22101AE  22244.50001157  .00056304  00000-0  40432-3 0  9996,2 53555  53.2150  91.8232 0001024  71.0758  85.3426 15.73117756  2026,6728.13,91.538,350.684,349.306,0.0
53555.0,STARLINK-4504,PAYLOAD,2022-09-01 14:00:01,15.73123828,0.0001054,53.2154,91.4109,71.8887,196.8034,0.00036606,0.00050898,0.0,0 STARLINK-4504,1 53555U 22101AE  22244.58335648  .00050898  00000-0  36606-3 0  9999,2 53555  53.2154  91.4109 0001054  71.8887 196.8034 15.73123828  1303,6728.111999999999,91.538,350.686,349.26800000000014,0.0
53555.0,STARLINK-4504,PAYLOAD,2022-09-01 22:00:00,15.73143308,0.0001190999999999,53.2157,89.7637,58.7695,298.7173,0.00029333,0.00040646,0.0,0 STARLINK-4504,1 53555U 22101AE  22244.91667824  .00040646  00000-0  29333-3 0  9999,2 53555  53.2157  89.7637 0001191  58.7695 298.7173 15.73143308  1306,6728.057,91.536,350.723,349.12,0.0
